[{"OBJECT_NAME":"STARLINK-1524","OBJECT_ID":"2020-055W","EPOCH":"2026-03-09T09:25:18.503328","MEAN_MOTION":15.29379865,"ECCENTRICITY":0.00014693,"INCLINATION":53.1566,"RA_OF_ASC_NODE":115.2043,"ARG_OF_PERICENTER":112.6811,"MEAN_ANOMALY":247.4344,"EPHEMERIS_TYPE":0,"CLASSIFICATION_TYPE":"U","NORAD_CAT_ID":46047,"ELEMENT_SET_NO":999,"REV_AT_EPOCH":30902,"BSTAR":0.00029457817,"MEAN_MOTION_DOT":8.16e-5,"MEAN_MOTION_DDOT":0},{"OBJECT_NAME":"COSMOS 2251 DEB","OBJECT_ID":"1993-036AWN","EPOCH":"2026-03-09T06:26:08.321568","MEAN_MOTION":15.11257706,"ECCENTRICITY":0.00842289,"INCLINATION":74.0116,"RA_OF_ASC_NODE":284.5024,"ARG_OF_PERICENTER":350.308,"MEAN_ANOMALY":9.6482,"EPHEMERIS_TYPE":0,"CLASSIFICATION_TYPE":"U","NORAD_CAT_ID":35996,"ELEMENT_SET_NO":999,"REV_AT_EPOCH":73632,"BSTAR":0.00055219842,"MEAN_MOTION_DOT":0.00010085,"MEAN_MOTION_DDOT":0}]
